{"type": "FeatureCollection", "features": [ {"type": "Feature", "properties": {"norad_id": 66584, "name": "STARLINK-35939", "group": "last-30-days", "lat": 29.31051570909582, "lon": -177.08219672139396, "alt_km": 424.0012152967802, "timestamp": "2025-12-26T13:39:17.663149+00:00", "meta": {"OBJECT_NAME": "STARLINK-35939", "OBJECT_ID": "2025-268AD", "EPOCH": "2025-12-26T06:00:02.999808", "MEAN_MOTION": 15.47678609, "ECCENTRICITY": 0.00011668, "INCLINATION": 43.0002, "RA_OF_ASC_NODE": 41.8204, "ARG_OF_PERICENTER": 279.8198, "MEAN_ANOMALY": 236.0444, "EPHEMERIS_TYPE": 0, "CLASSIFICATION_TYPE": "U", "NORAD_CAT_ID": 66584, "ELEMENT_SET_NO": 999, "REV_AT_EPOCH": 601, "BSTAR": -0.043938295, "MEAN_MOTION_DOT": -0.02068344, "MEAN_MOTION_DDOT": 0}, "tle": {"line1": "1 66584U 25268AD  25360.25003472 -.02068344  00000+0 -43938-1 0  9997", "line2": "2 66584  43.0002  41.8204 0001166 279.8198 236.0444 15.47678609  6010"}}, "geometry": {"type": "Point", "coordinates": [-177.08219672139396, 29.31051570909582]}}, {"type": "Feature", "properties": {"norad_id": 66585, "name": "STARLINK-35963", "group": "last-30-days", "lat": -27.481302198638218, "lon": 6.465753361557467, "alt_km": 469.01776218845407, "timestamp": "2025-12-26T13:39:17.663159+00:00", "meta": {"OBJECT_NAME": "STARLINK-35963", "OBJECT_ID": "2025-268AE", "EPOCH": "2025-12-26T06:00:02.999808", "MEAN_MOTION": 15.34393461, "ECCENTRICITY": 0.00013535, "INCLINATION": 43.0007, "RA_OF_ASC_NODE": 42.2141, "ARG_OF_PERICENTER": 258.6444, "MEAN_ANOMALY": 95.8923, "EPHEMERIS_TYPE": 0, "CLASSIFICATION_TYPE": "U", "NORAD_CAT_ID": 66585, "ELEMENT_SET_NO": 999, "REV_AT_EPOCH": 607, "BSTAR": -0.066844354, "MEAN_MOTION_DOT": -0.02053604, "MEAN_MOTION_DDOT": 0}, "tle": {"line1": "1 66585U 25268AE  25360.25003472 -.02053604  00000+0 -66844-1 0  9992", "line2": "2 66585  43.0007  42.2141 0001353 258.6444  95.8923 15.34393461  6073"}}, "geometry": {"type": "Point", "coordinates": [6.465753361557467, -27.481302198638218]}}, {"type": "Feature", "properties": {"norad_id": 66586, "name": "TJS-21", "group": "last-30-days", "lat": 44.30823566556164, "lon": -48.590227190851294, "alt_km": 23980.027372210665, "timestamp": "2025-12-26T13:39:17.663173+00:00", "meta": {"OBJECT_NAME": "TJS-21", "OBJECT_ID": "2025-269A", "EPOCH": "2025-12-18T16:58:10.473888", "MEAN_MOTION": 2.00580748, "ECCENTRICITY": 0.6806869, "INCLINATION": 63.2733, "RA_OF_ASC_NODE": 161.7218, "ARG_OF_PERICENTER": 269.7428, "MEAN_ANOMALY": 18.6663, "EPHEMERIS_TYPE": 0, "CLASSIFICATION_TYPE": "U", "NORAD_CAT_ID": 66586, "ELEMENT_SET_NO": 999, "REV_AT_EPOCH": 55, "BSTAR": -0.059507049, "MEAN_MOTION_DOT": 1.084e-05, "MEAN_MOTION_DDOT": 0}, "tle": {"line1": "1 66586U 25269A   25352.70706567  .00001084  00000+0 -59507-1 0  9990", "line2": "2 66586  63.2733 161.7218 6806869 269.7428  18.6663  2.00580748   558"}}, "geometry": {"type": "Point", "coordinates": [-48.590227190851294, 44.30823566556164]}}, {"type": "Feature", "properties": {"norad_id": 66588, "name": "STARLINK-36076", "group": "last-30-days", "lat": 32.71702293231388, "lon": -110.49411967720829, "alt_km": 438.8037331393025, "timestamp": "2025-12-26T13:39:17.663189+00:00", "meta": {"OBJECT_NAME": "STARLINK-36076", "OBJECT_ID": "2025-270A", "EPOCH": "2025-12-25T15:19:22.837728", "MEAN_MOTION": 15.40737993, "ECCENTRICITY": 5.254e-05, "INCLINATION": 42.9959, "RA_OF_ASC_NODE": 118.4597, "ARG_OF_PERICENTER": 283.3048, "MEAN_ANOMALY": 76.775, "EPHEMERIS_TYPE": 0, "CLASSIFICATION_TYPE": "U", "NORAD_CAT_ID": 66588, "ELEMENT_SET_NO": 999, "REV_AT_EPOCH": 633, "BSTAR": 0.0010963954, "MEAN_MOTION_DOT": 0.00045829, "MEAN_MOTION_DDOT": 0}, "tle": {"line1": "1 66588U 25270A   25359.63845877  .00045829  00000+0  10964-2 0  9990", "line2": "2 66588  42.9959 118.4597 0000525 283.3048  76.7750 15.40737993  6330"}}, "geometry": {"type": "Point", "coordinates": [-110.49411967720829, 32.71702293231388]}}, {"type": "Feature", "properties": {"norad_id": 66589, "name": "STARLINK-35447", "group": "last-30-days", "lat": -29.87506084127256, "lon": -29.089768937279327, "alt_km": 445.91699800399147, "timestamp": "2025-12-26T13:39:17.663199+00:00", "meta": {"OBJECT_NAME": "STARLINK-35447", "OBJECT_ID": "2025-270B", "EPOCH": "2025-12-25T14:53:33.760896", "MEAN_MOTION": 15.4069884, "ECCENTRICITY": 0.0001173, "INCLINATION": 43.0008, "RA_OF_ASC_NODE": 118.3206, "ARG_OF_PERICENTER": 257.0782, "MEAN_ANOMALY": 102.9943, "EPHEMERIS_TYPE": 0, "CLASSIFICATION_TYPE": "U", "NORAD_CAT_ID": 66589, "ELEMENT_SET_NO": 999, "REV_AT_EPOCH": 644, "BSTAR": 0.00080611, "MEAN_MOTION_DOT": 0.00033516, "MEAN_MOTION_DDOT": 0}, "tle": {"line1": "1 66589U 25270B   25359.62052964  .00033516  00000+0  80611-3 0  9994", "line2": "2 66589  43.0008 118.3206 0001173 257.0782 102.9943 15.40698840  6442"}}, "geometry": {"type": "Point", "coordinates": [-29.089768937279327, -29.87506084127256]}}, {"type": "Feature", "properties": {"norad_id": 66590, "name": "STARLINK-35429", "group": "last-30-days", "lat": -29.351798639555348, "lon": 75.52740809972633, "alt_km": 445.3756559007379, "timestamp": "2025-12-26T13:39:17.663210+00:00", "meta": {"OBJECT_NAME": "STARLINK-35429", "OBJECT_ID": "2025-270C", "EPOCH": "2025-12-25T17:37:41.590560", "MEAN_MOTION": 15.40721997, "ECCENTRICITY": 0.0001639, "INCLINATION": 43.002, "RA_OF_ASC_NODE": 117.4547, "ARG_OF_PERICENTER": 273.6487, "MEAN_ANOMALY": 86.4182, "EPHEMERIS_TYPE": 0, "CLASSIFICATION_TYPE": "U", "NORAD_CAT_ID": 66590, "ELEMENT_SET_NO": 999, "REV_AT_EPOCH": 646, "BSTAR": 0.001733211, "MEAN_MOTION_DOT": 0.00072845, "MEAN_MOTION_DDOT": 0}, "tle": {"line1": "1 66590U 25270C   25359.73450915  .00072845  00000+0  17332-2 0  9993", "line2": "2 66590  43.0020 117.4547 0001639 273.6487  86.4182 15.40721997  6462"}}, "geometry": {"type": "Point", "coordinates": [75.52740809972633, -29.351798639555348]}}, {"type": "Feature", "properties": {"norad_id": 66591, "name": "STARLINK-36058", "group": "last-30-days", "lat": 26.51445409898531, "lon": 144.80962877414973, "alt_km": 439.0961538883721, "timestamp": "2025-12-26T13:39:17.663221+00:00", "meta": {"OBJECT_NAME": "STARLINK-36058", "OBJECT_ID": "2025-270D", "EPOCH": "2025-12-26T07:15:17.729856", "MEAN_MOTION": 15.40745919, "ECCENTRICITY": 0.00010417, "INCLINATION": 42.9952, "RA_OF_ASC_NODE": 113.9711, "ARG_OF_PERICENTER": 81.5221, "MEAN_ANOMALY": 278.5753, "EPHEMERIS_TYPE": 0, "CLASSIFICATION_TYPE": "U", "NORAD_CAT_ID": 66591, "ELEMENT_SET_NO": 999, "REV_AT_EPOCH": 644, "BSTAR": 0.0012476797, "MEAN_MOTION_DOT": 0.00052252, "MEAN_MOTION_DDOT": 0}, "tle": {"line1": "1 66591U 25270D   25360.30228854  .00052252  00000+0  12477-2 0  9999", "line2": "2 66591  42.9952 113.9711 0001041  81.5221 278.5753 15.40745919  6444"}}, "geometry": {"type": "Point", "coordinates": [144.80962877414973, 26.51445409898531]}}, {"type": "Feature", "properties": {"norad_id": 66592, "name": "STARLINK-36066", "group": "last-30-days", "lat": 1.9443704331348237, "lon": -69.11227356199933, "alt_km": 443.76344529664584, "timestamp": "2025-12-26T13:39:17.663231+00:00", "meta": {"OBJECT_NAME": "STARLINK-36066", "OBJECT_ID": "2025-270E", "EPOCH": "2025-12-25T16:39:49.376736", "MEAN_MOTION": 15.40707588, "ECCENTRICITY": 0.00016284, "INCLINATION": 42.9987, "RA_OF_ASC_NODE": 118.0173, "ARG_OF_PERICENTER": 278.605, "MEAN_ANOMALY": 81.4622, "EPHEMERIS_TYPE": 0, "CLASSIFICATION_TYPE": "U", "NORAD_CAT_ID": 66592, "ELEMENT_SET_NO": 999, "REV_AT_EPOCH": 624, "BSTAR": 0.00046997684, "MEAN_MOTION_DOT": 0.00019383, "MEAN_MOTION_DDOT": 0}, "tle": {"line1": "1 66592U 25270E   25359.69432149  .00019383  00000+0  46998-3 0  9998", "line2": "2 66592  42.9987 118.0173 0001628 278.6050  81.4622 15.40707588  6245"}}, "geometry": {"type": "Point", "coordinates": [-69.11227356199933, 1.9443704331348237]}}, {"type": "Feature", "properties": {"norad_id": 66593, "name": "STARLINK-36031", "group": "last-30-days", "lat": -42.7085364236762, "lon": 14.850489807149302, "alt_km": 445.96324599935724, "timestamp": "2025-12-26T13:39:17.663242+00:00", "meta": {"OBJECT_NAME": "STARLINK-36031", "OBJECT_ID": "2025-270F", "EPOCH": "2025-12-25T17:50:35.504736", "MEAN_MOTION": 15.40707259, "ECCENTRICITY": 0.00018776, "INCLINATION": 43.0021, "RA_OF_ASC_NODE": 117.5214, "ARG_OF_PERICENTER": 259.4699, "MEAN_ANOMALY": 100.5946, "EPHEMERIS_TYPE": 0, "CLASSIFICATION_TYPE": "U", "NORAD_CAT_ID": 66593, "ELEMENT_SET_NO": 999, "REV_AT_EPOCH": 635, "BSTAR": 0.00071243351, "MEAN_MOTION_DOT": 0.00029579, "MEAN_MOTION_DDOT": 0}, "tle": {"line1": "1 66593U 25270F   25359.74346649  .00029579  00000+0  71243-3 0  9993", "line2": "2 66593  43.0021 117.5214 0001877 259.4699 100.5946 15.40707259  6358"}}, "geometry": {"type": "Point", "coordinates": [14.850489807149302, -42.7085364236762]}}, {"type": "Feature", "properties": {"norad_id": 66594, "name": "STARLINK-36032", "group": "last-30-days", "lat": 2.564338569246375, "lon": 115.27722210126976, "alt_km": 442.81310942557593, "timestamp": "2025-12-26T13:39:17.663255+00:00", "meta": {"OBJECT_NAME": "STARLINK-36032", "OBJECT_ID": "2025-270G", "EPOCH": "2025-12-25T17:24:47.765376", "MEAN_MOTION": 15.40743398, "ECCENTRICITY": 5.928e-05, "INCLINATION": 42.9988, "RA_OF_ASC_NODE": 117.3844, "ARG_OF_PERICENTER": 314.5703, "MEAN_ANOMALY": 45.5105, "EPHEMERIS_TYPE": 0, "CLASSIFICATION_TYPE": "U", "NORAD_CAT_ID": 66594, "ELEMENT_SET_NO": 999, "REV_AT_EPOCH": 616, "BSTAR": 0.0011846093, "MEAN_MOTION_DOT": 0.00049574, "MEAN_MOTION_DDOT": 0}, "tle": {"line1": "1 66594U 25270G   25359.72555284  .00049574  00000+0  11846-2 0  9998", "line2": "2 66594  42.9988 117.3844 0000592 314.5703  45.5105 15.40743398  6166"}}, "geometry": {"type": "Point", "coordinates": [115.27722210126976, 2.564338569246375]}}]}